[{"OBJECT_NAME":"ONEWEB-0118","OBJECT_ID":"2020-100G","EPOCH":"2026-03-09T20:13:27.738624","MEAN_MOTION":13.12441002,"ECCENTRICITY":0.00019173,"INCLINATION":87.9003,"RA_OF_ASC_NODE":10.3687,"ARG_OF_PERICENTER":69.0195,"MEAN_ANOMALY":291.1138,"EPHEMERIS_TYPE":0,"CLASSIFICATION_TYPE":"U","NORAD_CAT_ID":47264,"ELEMENT_SET_NO":999,"REV_AT_EPOCH":25169,"BSTAR":4.0020893e-5,"MEAN_MOTION_DOT":2.7e-7,"MEAN_MOTION_DDOT":0},{"OBJECT_NAME":"ARIANE 2 DEB","OBJECT_ID":"1988-040E","EPOCH":"2026-03-09T12:19:46.322976","MEAN_MOTION":2.29340333,"ECCENTRICITY":0.7173101,"INCLINATION":7.7514,"RA_OF_ASC_NODE":28.2943,"ARG_OF_PERICENTER":18.1667,"MEAN_ANOMALY":357.7238,"EPHEMERIS_TYPE":0,"CLASSIFICATION_TYPE":"U","NORAD_CAT_ID":27595,"ELEMENT_SET_NO":999,"REV_AT_EPOCH":19733,"BSTAR":0.0020996479,"MEAN_MOTION_DOT":3.06e-6,"MEAN_MOTION_DDOT":0}]
